$$SOE
2460721.500000000, A.D. 2025-Feb-15 00:00:00.0000, -4.183737831728416E+08, -1.268680893075660E+08, -1.171224587106965E+07,
2460728.500000000, A.D. 2025-Feb-22 00:00:00.0000, -4.143406639860135E+08, -1.355934346639750E+08, -9.797830111930594E+06,
2460735.500000000, A.D. 2025-Mar-01 00:00:00.0000, -4.100649740876879E+08, -1.442394470944999E+08, -7.877679772045411E+06,
2460742.500000000, A.D. 2025-Mar-08 00:00:00.0000, -4.055470402000855E+08, -1.528002998519123E+08, -5.952877615984738E+06,
2460749.500000000, A.D. 2025-Mar-15 00:00:00.0000, -4.007872887164785E+08, -1.612700900510793E+08, -4.024528230241284E+06,
2460756.500000000, A.D. 2025-Mar-22 00:00:00.0000, -3.957862526937118E+08, -1.696428367916376E+08, -2.093758439573362E+06,
2460763.500000000, A.D. 2025-Mar-29 00:00:00.0000, -3.905445777571821E+08, -1.779124816441787E+08, -1.617180359894931E+05,
2460770.500000000, A.D. 2025-Apr-05 00:00:00.0000, -3.850630266040447E+08, -1.860728883730372E+08, 1.770419408362366E+06,
2460777.500000000, A.D. 2025-Apr-12 00:00:00.0000, -3.793424840373088E+08, -1.941178418032970E+08, 3.701455831950307E+06,
2460784.500000000, A.D. 2025-Apr-19 00:00:00.0000, -3.733839627225480E+08, -2.020410467285439E+08, 5.630168025590420E+06,
2460791.500000000, A.D. 2025-Apr-26 00:00:00.0000, -3.671886094010387E+08, -2.098361270821518E+08, 7.555306985616699E+06,
2460798.500000000, A.D. 2025-May-03 00:00:00.0000, -3.607577114535902E+08, -2.174966253761887E+08, 9.475597271754578E+06,
2460805.500000000, A.D. 2025-May-10 00:00:00.0000, -3.540927037966790E+08, -2.250160024245924E+08, 1.138973637041326E+07,
2460812.500000000, A.D. 2025-May-17 00:00:00.0000, -3.471951760854397E+08, -2.323876374179937E+08, 1.329639406000774E+07,
2460819.500000000, A.D. 2025-May-24 00:00:00.0000, -3.400668800605230E+08, -2.396048284317533E+08, 1.519421176199269E+07,
2460826.500000000, A.D. 2025-May-31 00:00:00.0000, -3.327097366305217E+08, -2.466607930843635E+08, 1.708180186946347E+07,
2460833.500000000, A.D. 2025-Jun-07 00:00:00.0000, -3.251258430981262E+08, -2.535486681709739E+08, 1.895774719385605E+07,
2460840.500000000, A.D. 2025-Jun-14 00:00:00.0000, -3.173174828991775E+08, -2.602615089709219E+08, 2.082060069778892E+07,
2460847.500000000, A.D. 2025-Jun-21 00:00:00.0000, -3.092871366415440E+08, -2.667922915368045E+08, 2.266888514124733E+07,
2460854.500000000, A.D. 2025-Jun-28 00:00:00.0000, -3.010374913193989E+08, -2.731339162396155E+08, 2.450109250542527E+07,
2460861.500000000, A.D. 2025-Jul-05 00:00:00.0000, -2.925714492207966E+08, -2.792792104534851E+08, 2.631568351738071E+07,
2460868.500000000, A.D. 2025-Jul-12 00:00:00.0000, -2.838921377165857E+08, -2.852209312272275E+08, 2.811108732717623E+07,
2460875.500000000, A.D. 2025-Jul-19 00:00:00.0000, -2.750029197346621E+08, -2.909517685634373E+08, 2.988570128179555E+07,
2460882.500000000, A.D. 2025-Jul-26 00:00:00.0000, -2.659074047008081E+08, -2.964643494118248E+08, 3.163789078139350E+07,
2460889.500000000, A.D. 2025-Aug-02 00:00:00.0000, -2.566094598697295E+08, -3.017512424087118E+08, 3.336598922417025E+07,
2460896.500000000, A.D. 2025-Aug-09 00:00:00.0000, -2.471132220084323E+08, -3.068049634331894E+08, 3.506829804812382E+07,
2460903.500000000, A.D. 2025-Aug-16 00:00:00.0000, -2.374231093357861E+08, -3.116179821012768E+08, 3.674308686997038E+07,
2460910.500000000, A.D. 2025-Aug-23 00:00:00.0000, -2.275438334010554E+08, -3.161827292423289E+08, 3.838859370915911E+07,
2460917.500000000, A.D. 2025-Aug-30 00:00:00.0000, -2.174804105420818E+08, -3.204916047068447E+08, 4.000302533950332E+07,
2460924.500000000, A.D. 2025-Sep-06 00:00:00.0000, -2.072381743040206E+08, -3.245369845703257E+08, 4.158455799538206E+07,
2460931.500000000, A.D. 2025-Sep-13 00:00:00.0000, -1.968227904441359E+08, -3.283112302832347E+08, 4.313133839866763E+07,
2460938.500000000, A.D. 2025-Sep-20 00:00:00.0000, -1.862402711971498E+08, -3.318067014826269E+08, 4.464148468883699E+07,
2460945.500000000, A.D. 2025-Sep-27 00:00:00.0000, -1.754969876835684E+08, -3.350157694267589E+08, 4.611308743199559E+07,
2460952.500000000, A.D. 2025-Oct-04 00:00:00.0000, -1.645996824092812E+08, -3.379308305849607E+08, 4.754421095717166E+07,
2460959.500000000, A.D. 2025-Oct-11 00:00:00.0000, -1.535554821506897E+08, -3.405443213957450E+08, 4.893289499676239E+07,
2460966.500000000, A.D. 2025-Oct-18 00:00:00.0000, -1.423719108504588E+08, -3.428487345361292E+08, 5.027715660257544E+07,
2460973.500000000, A.D. 2025-Oct-25 00:00:00.0000, -1.310569022806553E+08, -3.448366367584772E+08, 5.157499234579708E+07,
2460980.500000000, A.D. 2025-Nov-01 00:00:00.0000, -1.196188123179464E+08, -3.465006883448993E+08, 5.282438081950589E+07,
2460987.500000000, A.D. 2025-Nov-08 00:00:00.0000, -1.080664306682341E+08, -3.478336642720840E+08, 5.402328545966160E+07,
2460994.500000000, A.D. 2025-Nov-15 00:00:00.0000, -9.640899175146054E+07, -3.488284771999486E+08, 5.516965768801810E+07,
2461001.500000000, A.D. 2025-Nov-22 00:00:00.0000, -8.465618418810877E+07, -3.494782021106247E+08, 5.626144037952507E+07,
2461008.500000000, A.D. 2025-Nov-29 00:00:00.0000, -7.281815887030125E+07, -3.497761014993221E+08, 5.729657178201397E+07,
2461015.500000000, A.D. 2025-Dec-06 00:00:00.0000, -6.090553771001357E+07, -3.497156512764968E+08, 5.827299010579522E+07,
2461022.500000000, A.D. 2025-Dec-13 00:00:00.0000, -4.892942243102567E+07, -3.492905707601970E+08, 5.918863848626435E+07,
2461029.500000000, A.D. 2025-Dec-20 00:00:00.0000, -3.690139969896843E+07, -3.484948557280791E+08, 6.004147009962294E+07,
2461036.500000000, A.D. 2025-Dec-27 00:00:00.0000, -2.483354343930284E+07, -3.473228119082050E+08, 6.082945375580558E+07,
2461043.500000000, A.D. 2026-Jan-03 00:00:00.0000, -1.273841556466565E+07, -3.457690894672877E+08, 6.155058006083804E+07,
2461050.500000000, A.D. 2026-Jan-10 00:00:00.0000, -6.290647494686923E+05, -3.438287190920658E+08, 6.220286808686857E+07,
2461057.500000000, A.D. 2026-Jan-17 00:00:00.0000, 1.148097724414343E+07, -3.414971496472902E+08, 6.278437252139242E+07,
2461064.500000000, A.D. 2026-Jan-24 00:00:00.0000, 2.357770203512216E+07, -3.387702872525900E+08, 6.329319128766185E+07,
2461071.500000000, A.D. 2026-Jan-31 00:00:00.0000, 3.564663417825087E+07, -3.356445356184562E+08, 6.372747362655409E+07,
2461078.500000000, A.D. 2026-Feb-07 00:00:00.0000, 4.767284412940841E+07, -3.321168374942037E+08, 6.408542861645280E+07,
2461085.500000000, A.D. 2026-Feb-14 00:00:00.0000, 5.964096512931976E+07, -3.281847169973832E+08, 6.436533408540342E+07,
2461092.500000000, A.D. 2026-Feb-21 00:00:00.0000, 7.153521463623534E+07, -3.238463219583685E+08, 6.456554589621352E+07,
2461099.500000000, A.D. 2026-Feb-28 00:00:00.0000, 8.333941944825420E+07, -3.191004647933780E+08, 6.468450775692511E+07,
2461106.500000000, A.D. 2026-Mar-07 00:00:00.0000, 9.503704265861265E+07, -3.139466634779330E+08, 6.472076153370389E+07,
2461113.500000000, A.D. 2026-Mar-14 00:00:00.0000, 1.066112153920585E+08, -3.083851845334640E+08, 6.467295755806181E+07,
2461120.500000000, A.D. 2026-Mar-21 00:00:00.0000, 1.180447752395177E+08, -3.024170846725637E+08, 6.453986492998471E+07,
2461127.500000000, A.D. 2026-Mar-28 00:00:00.0000, 1.293203094675603E+08, -2.960442495819898E+08, 6.432038200375468E+07,
2461134.500000000, A.D. 2026-Apr-04 00:00:00.0000, 1.404202024290202E+08, -2.892694302827927E+08, 6.401354694048826E+07,
2461141.500000000, A.D. 2026-Apr-11 00:00:00.0000, 1.513266874161454E+08, -2.820962768735744E+08, 6.361854817016816E+07,
2461148.500000000, A.D. 2026-Apr-18 00:00:00.0000, 1.620219030129985E+08, -2.745293690898653E+08, 6.313473463595799E+07,
2461155.500000000, A.D. 2026-Apr-25 00:00:00.0000, 1.724879538133245E+08, -2.665742430798211E+08, 6.256162569697846E+07,
2461162.500000000, A.D. 2026-May-02 00:00:00.0000, 1.827069752729373E+08, -2.582374138384330E+08, 6.189892055555709E+07,
2461169.500000000, A.D. 2026-May-09 00:00:00.0000, 1.926612024758434E+08, -2.495263927885315E+08, 6.114650705804726E+07,
2461176.500000000, A.D. 2026-May-16 00:00:00.0000, 2.023330427617930E+08, -2.404496998178664E+08, 6.030446971073543E+07,
2461183.500000000, A.D. 2026-May-23 00:00:00.0000, 2.117051517489817E+08, -2.310168682389240E+08, 5.937309685580146E+07,
2461190.500000000, A.D. 2026-May-30 00:00:00.0000, 2.207605100666012E+08, -2.212384418932519E+08, 5.835288709136149E+07,
2461197.500000000, A.D. 2026-Jun-06 00:00:00.0000, 2.294824997899757E+08, -2.111259672764822E+08, 5.724455456680737E+07,
2461204.500000000, A.D. 2026-Jun-13 00:00:00.0000, 2.378549834837761E+08, -2.006919801645816E+08, 5.604903271117814E+07,
2461211.500000000, A.D. 2026-Jun-20 00:00:00.0000, 2.458623845329403E+08, -1.899499835907365E+08, 5.476747657118133E+07,
2461218.500000000, A.D. 2026-Jun-27 00:00:00.0000, 2.534897661940902E+08, -1.789144173950781E+08, 5.340126379389266E+07,
2461225.500000000, A.D. 2026-Jul-04 00:00:00.0000, 2.607229084637434E+08, -1.676006201180983E+08, 5.195199411522758E+07,
2461232.500000000, A.D. 2026-Jul-11 00:00:00.0000, 2.675483820974852E+08, -1.560247834861661E+08, 5.042148726495977E+07,
2461239.500000000, A.D. 2026-Jul-18 00:00:00.0000, 2.739536189565780E+08, -1.442038997050996E+08, 4.881177924985174E+07,
2461246.500000000, A.D. 2026-Jul-25 00:00:00.0000, 2.799269778138403E+08, -1.321557019272973E+08, 4.712511700584024E+07,
2461253.500000000, A.D. 2026-Aug-01 00:00:00.0000, 2.854578048170983E+08, -1.198985984327524E+08, 4.536395142945111E+07,
2461260.500000000, A.D. 2026-Aug-08 00:00:00.0000, 2.905364880362377E+08, -1.074516011672126E+08, 4.353092880925579E+07,
2461267.500000000, A.D. 2026-Aug-15 00:00:00.0000, 2.951545058037621E+08, -9.483424889629492E+07, 4.162888072586334E+07,
2461274.500000000, A.D. 2026-Aug-22 00:00:00.0000, 2.993044674916161E+08, -8.206652455848032E+07, 3.966081268898285E+07,
2461281.500000000, A.D. 2026-Aug-29 00:00:00.0000, 3.029801439552508E+08, -6.916876908031105E+07, 3.762989173213904E+07,
2461288.500000000, A.D. 2026-Sep-05 00:00:00.0000, 3.061764894137568E+08, -5.616159546967834E+07, 3.553943267358668E+07,
$$EOE